[
    {
        "Altitude(m)": 705151.3173852781,
        "Argument of Periapsis(deg)": 0.011390121186627068,
        "Eccentricity": 0.0,
        "Inclination(deg)": 45.0,
        "Latitude(deg)": 34.973614708664925,
        "Longitude(deg)": -114.86200500240741,
        "Mean Anomaly(deg)": 126.07871664748086,
        "RAAN(deg)": 209.98924805854182,
        "Satellite Name": "Constellation 1 931",
        "Satellite Number": 931,
        "Semi-Major Axis(m)": 7083131.272910544,
        "Time(s)": 190
    },
    {
        "Altitude(m)": 705145.3785917935,
        "Argument of Periapsis(deg)": 0.011450069192872472,
        "Eccentricity": 0.0,
        "Inclination(deg)": 45.0,
        "Latitude(deg)": 34.94264720875572,
        "Longitude(deg)": -114.80243210178547,
        "Mean Anomaly(deg)": 126.13941778773074,
        "RAAN(deg)": 209.9891914693762,
        "Satellite Name": "Constellation 1 931",
        "Satellite Number": 931,
        "Semi-Major Axis(m)": 7083131.272910544,
        "Time(s)": 191
    },
    {
        "Altitude(m)": 705139.4383184916,
        "Argument of Periapsis(deg)": 0.01151001719911788,
        "Eccentricity": 0.0,
        "Inclination(deg)": 45.0,
        "Latitude(deg)": 34.91164620345058,
        "Longitude(deg)": -114.74290705735821,
        "Mean Anomaly(deg)": 126.20011892798061,
        "RAAN(deg)": 209.98913488021066,
        "Satellite Name": "Constellation 1 931",
        "Satellite Number": 931,
        "Semi-Major Axis(m)": 7083131.272910544,
        "Time(s)": 192
    },
    {
        "Altitude(m)": 705133.4966033098,
        "Argument of Periapsis(deg)": 0.011569965205363285,
        "Eccentricity": 0.0,
        "Inclination(deg)": 45.0,
        "Latitude(deg)": 34.880611755674394,
        "Longitude(deg)": -114.68342999763297,
        "Mean Anomaly(deg)": 126.26082006823056,
        "RAAN(deg)": 209.9890782910451,
        "Satellite Name": "Constellation 1 931",
        "Satellite Number": 931,
        "Semi-Major Axis(m)": 7083131.272910544,
        "Time(s)": 193
    },
    {
        "Altitude(m)": 705127.5534841951,
        "Argument of Periapsis(deg)": 0.01162991321160869,
        "Eccentricity": 0.0,
        "Inclination(deg)": 45.0,
        "Latitude(deg)": 34.849543928287225,
        "Longitude(deg)": -114.62400054662828,
        "Mean Anomaly(deg)": 126.32152120848048,
        "RAAN(deg)": 209.98902170187952,
        "Satellite Name": "Constellation 1 931",
        "Satellite Number": 931,
        "Semi-Major Axis(m)": 7083131.272910544,
        "Time(s)": 194
    },
    {
        "Altitude(m)": 705121.6089991404,
        "Argument of Periapsis(deg)": 0.011689861217854095,
        "Eccentricity": 0.0,
        "Inclination(deg)": 45.0,
        "Latitude(deg)": 34.81844278408507,
        "Longitude(deg)": -114.5646188324564,
        "Mean Anomaly(deg)": 126.38222234873031,
        "RAAN(deg)": 209.98896511271397,
        "Satellite Name": "Constellation 1 931",
        "Satellite Number": 931,
        "Semi-Major Axis(m)": 7083131.272910544,
        "Time(s)": 195
    },
    {
        "Altitude(m)": 705115.6631861308,
        "Argument of Periapsis(deg)": 0.0117498092240995,
        "Eccentricity": 0.0,
        "Inclination(deg)": 45.0,
        "Latitude(deg)": 34.787308385799165,
        "Longitude(deg)": -114.5052848149371,
        "Mean Anomaly(deg)": 126.44292348898016,
        "RAAN(deg)": 209.98890852354836,
        "Satellite Name": "Constellation 1 931",
        "Satellite Number": 931,
        "Semi-Major Axis(m)": 7083131.272910544,
        "Time(s)": 196
    },
    {
        "Altitude(m)": 705109.7160832009,
        "Argument of Periapsis(deg)": 0.011809757230344905,
        "Eccentricity": 0.0,
        "Inclination(deg)": 45.0,
        "Latitude(deg)": 34.75614079609571,
        "Longitude(deg)": -114.44599845369527,
        "Mean Anomaly(deg)": 126.50362462923015,
        "RAAN(deg)": 209.9888519343828,
        "Satellite Name": "Constellation 1 931",
        "Satellite Number": 931,
        "Semi-Major Axis(m)": 7083131.272910544,
        "Time(s)": 197
    },
    {
        "Altitude(m)": 705103.7677283928,
        "Argument of Periapsis(deg)": 0.011869705236590313,
        "Eccentricity": 0.0,
        "Inclination(deg)": 45.0,
        "Latitude(deg)": 34.72494007757609,
        "Longitude(deg)": -114.38675970816314,
        "Mean Anomaly(deg)": 126.56432576947998,
        "RAAN(deg)": 209.98879534521726,
        "Satellite Name": "Constellation 1 931",
        "Satellite Number": 931,
        "Semi-Major Axis(m)": 7083131.272910544,
        "Time(s)": 198
    },
    {
        "Altitude(m)": 705097.8181597773,
        "Argument of Periapsis(deg)": 0.011929653242835719,
        "Eccentricity": 0.0,
        "Inclination(deg)": 45.0,
        "Latitude(deg)": 34.69370629277636,
        "Longitude(deg)": -114.32756853758033,
        "Mean Anomaly(deg)": 126.62502690972995,
        "RAAN(deg)": 209.98873875605167,
        "Satellite Name": "Constellation 1 931",
        "Satellite Number": 931,
        "Semi-Major Axis(m)": 7083131.272910544,
        "Time(s)": 199
    }
]